METOP-C                 
1 43689U 18087A   26183.76441601  .00000135  00000+0  81723-4 0  9996
2 43689  98.6637 243.0828 0002154 109.5138 250.6273 14.21516397397044
GEO-KOMPSAT-2A          
1 43823U 18100A   26183.83125884 -.00000333  00000+0  00000+0 0  9997
2 43823   0.0451 169.6912 0002255 284.8102 253.8622  1.00268738 27782
METEOR-M2 2             
1 44387U 19038A   26184.61200365 -.00000275  00000+0 -99008-4 0  9996
2 44387  98.9150 172.1403 0001417  23.4090 336.7152 14.24368886363637
ARKTIKA-M 1             
1 47719U 21016A   26180.95192977 -.00000281  00000+0  00000+0 0  9994
2 47719  63.2520  55.7907 7292817 269.9910  14.5481  2.00617895 39040
FENGYUN 3E              
1 49008U 21062A   26184.62048384  .00000077  00000+0  56907-4 0  9992
2 49008  98.7491 187.8451 0002658  58.3390 301.8045 14.19906003258913
GOES 18                 
1 51850U 22021A   26183.76934929  .00000107  00000+0  00000+0 0  9991
2 51850   0.0057 128.3422 0000560  15.0873 277.3340  1.00271504  6743
NOAA 21 (JPSS-2)        
1 54234U 22150A   26183.82276674  .00000058  00000+0  47932-4 0  9991
2 54234  98.7060 122.3492 0002466 126.4917 233.6487 14.19539315188765
METEOSAT-12 (MTG-I1)    
1 54743U 22170C   26183.72509264  .00000004  00000+0  00000+0 0  9992
2 54743   0.7551  25.3200 0003602  74.6137  81.6181  1.00276285 13138
TIANMU-1 03             
1 55973U 23039A   26184.66838220  .00015977  00000+0  30988-3 0  9991
2 55973  97.5238 359.2878 0003543  56.9366 303.2223 15.47757108183380
TIANMU-1 04             
1 55974U 23039B   26184.65141294  .00019501  00000+0  36964-3 0  9996
2 55974  97.5177 358.4255 0004008  51.3479 308.8130 15.48375633183393
TIANMU-1 05             
1 55975U 23039C   26184.71460319  .00019037  00000+0  36960-3 0  9996
2 55975  97.5222 358.9449 0003709  75.0606 285.1054 15.47687721183370
TIANMU-1 06             
1 55976U 23039D   26184.65583689  .00016143  00000+0  30754-3 0  9996
2 55976  97.5228 359.5363 0003930  69.8961 290.2712 15.48270516183391
FENGYUN 3G              
1 56232U 23055A   26184.70705513  .00024465  00000+0  38527-3 0  9990
2 56232  49.9917 260.8582 0007294   5.6123 354.4925 15.53361270182577
METEOR-M2 3             
1 57166U 23091A   26184.68036579  .00000027  00000+0  30645-4 0  9995
2 57166  98.6079 239.3206 0005025 116.1939 243.9757 14.24048310156863
TIANMU-1 07             
1 57399U 23101A   26184.58249410  .00006954  00000+0  24195-3 0  9991
2 57399  97.2579 234.8753 0004253  88.1930 271.9799 15.30000780164154
TIANMU-1 08             
1 57400U 23101B   26184.67989443  .00007037  00000+0  24471-3 0  9991
2 57400  97.2567 234.7387 0005434  75.4870 284.6973 15.30006121164161
TIANMU-1 09             
1 57401U 23101C   26184.59754786  .00008852  00000+0  30679-3 0  9996
2 57401  97.2524 234.0657 0004843  90.6055 269.5741 15.30045591164153
TIANMU-1 10             
1 57402U 23101D   26184.63089332  .00008919  00000+0  30928-3 0  9991
2 57402  97.2605 235.1655 0006320  84.3977 275.7985 15.30018263164154
FENGYUN 3F              
1 57490U 23111A   26184.67447632  .00000094  00000+0  64447-4 0  9994
2 57490  98.6830 254.3756 0001465  82.0151 278.1192 14.19942114151201
ARKTIKA-M 2             
1 58584U 23198A   26180.72239164  .00000148  00000+0  00000+0 0  9995
2 58584  63.2199 152.9641 6905877 267.3845  18.7575  2.00610643 18573
TIANMU-1 11             
1 58645U 23205A   26184.63178954  .00005828  00000+0  22144-3 0  9992
2 58645  97.3439 205.9315 0007135 314.1009  45.9643 15.27165206140038
TIANMU-1 12             
1 58646U 23205B   26183.42334862  .00006720  00000+0  25584-3 0  9994
2 58646  97.3426 204.4940 0005309 296.9950  63.0746 15.27051163139833
TIANMU-1 13             
1 58647U 23205C   26184.63628434  .00006030  00000+0  23033-3 0  9991
2 58647  97.3455 205.9634 0004990 265.1273  94.9397 15.26986592140012
TIANMU-1 14             
1 58648U 23205D   26184.62100935  .00007069  00000+0  26910-3 0  9992
2 58648  97.3392 205.1174 0005755 272.6154  87.4426 15.27033431140011
TIANMU-1 19             
1 58660U 23208A   26184.61931876  .00010776  00000+0  35302-3 0  9998
2 58660  97.4523 301.0065 0003665 247.6224 112.4629 15.31828155139848
TIANMU-1 20             
1 58661U 23208B   26184.64436302  .00008793  00000+0  27806-3 0  9992
2 58661  97.4464 301.6841 0005628 260.9265  99.1340 15.33014335139946
TIANMU-1 21             
1 58662U 23208C   26184.60771308  .00012597  00000+0  36861-3 0  9995
2 58662  97.4524 304.3995 0005805 251.1822 108.8792 15.35375479140089
TIANMU-1 22             
1 58663U 23208D   26184.60674796  .00010330  00000+0  34425-3 0  9996
2 58663  97.4519 300.9158 0002167 282.2466  77.8532 15.31292342139846
TIANMU-1 15             
1 58700U 24004A   26185.00624700  .00007223  00000+0  27674-3 0  9993
2 58700  97.4669  11.1966 0005652 278.1840  81.8757 15.26820077138348
TIANMU-1 16             
1 58701U 24004B   26184.66880044  .00006184  00000+0  23673-3 0  9990
2 58701  97.4616  10.0822 0004428 301.2741  58.8064 15.26917421138297
TIANMU-1 17             
1 58702U 24004C   26184.58873332  .00008466  00000+0  32294-3 0  9998
2 58702  97.4642  10.4932 0004062 309.7724  50.3157 15.26920424138276
TIANMU-1 18             
1 58703U 24004D   26184.69525844  .00005812  00000+0  22322-3 0  9996
2 58703  97.4661  10.8611 0003383 283.0041  77.0820 15.26834186138291
INSAT-3DS               
1 58990U 24033A   26183.79377845 -.00000145  00000+0  00000+0 0  9992
2 58990   0.0723  96.7226 0001319   8.3588 183.5507  1.00273790 47226
METEOR-M2 4             
1 59051U 24039A   26184.64345984  .00000028  00000+0  32287-4 0  9997
2 59051  98.7019 143.7352 0008055 117.5333 242.6664 14.22431271121609
GOES 19                 
1 60133U 24119A   26183.56768633 -.00000238  00000+0  00000+0 0  9996
2 60133   0.0126  77.9489 0000538  80.1000 251.7332  1.00271173  7117
MTG-S1                  
1 64723U 25143A   26183.72509264  .00000003  00000+0  00000+0 0  9993
2 64723   0.5916 342.2144 0002957 262.9947 296.1264  1.00272109  3574
METOP-SGA1              
1 65159U 25172A   26183.64337603  .00000065  00000+0  51184-4 0  9998
2 65159  98.6636 243.0440 0007790   9.5325 350.5998 14.19817616 45989
FENGYUN 3H              
1 65815U 25219A   26183.82547604  .00000062  00000+0  49611-4 0  9992
2 65815  98.6770 124.2907 0001387  65.8877 294.2444 14.19923114 39601
OSCAR 7 (AO-7)          
1 07530U 74089B   26183.87627582 -.00000045  00000+0  77302-5 0  9991
2 07530 101.9899 197.2864 0012659 101.0890  19.6253 12.53698346362489
PHASE 3B (AO-10)        
1 14129U 83058B   26182.45083748 -.00000048  00000+0  00000+0 0  9990
2 14129  25.9245 217.2087 6005973 119.5898 312.7847  2.05870235295789
UOSAT 2 (UO-11)         
1 14781U 84021B   26183.86020326  .00001736  00000+0  18198-3 0  9999
2 14781  97.8066 149.2607 0008803 125.4779 234.7262 14.90824847259461
LUSAT (LO-19)           
1 20442U 90005G   26183.87990446  .00000119  00000+0  59265-4 0  9994
2 20442  98.8845 206.1176 0012001 155.2514 204.9248 14.34127825904645
EYESAT A (AO-27)        
1 22825U 93061C   26183.59287117  .00000133  00000+0  67579-4 0  9992
2 22825  98.6875 251.0004 0009336  59.8657 300.3450 14.30946419709201
ITAMSAT (IO-26)         
1 22826U 93061D   26183.63758890  .00000132  00000+0  66678-4 0  9997
2 22826  98.6822 250.9642 0009642  44.3148 315.8806 14.31373734709520
RADIO ROSTO (RS15)      
1 23439U 94085A   26183.81395042 -.00000021  00000+0  60439-3 0  9997
2 23439  64.8178 277.9441 0156471   0.9878 359.1328 11.27583443297666
JAS-2 (FO-29)           
1 24278U 96046B   26183.83715120 -.00000028  00000+0  57561-5 0  9994
2 24278  98.5226  30.5644 0350781  55.9383 307.4537 13.53274951475281
TECHSAT 1B (GO-32)      
1 25397U 98043D   26183.86904904  .00000053  00000+0  42977-4 0  9990
2 25397  99.0074 177.0235 0001780 134.6871 225.4453 14.24431396453563
ISS (ZARYA)             
1 25544U 98067A   26182.50817465  .00006185  00000+0  11827-3 0  9996
2 25544  51.6311 229.1989 0004224 255.0896 104.9625 15.49503254573972
PCSAT (NO-44)           
1 26931U 01043C   26183.45542852  .00000104  00000+0  69838-4 0  9996
2 26931  67.0489 204.7811 0006018 265.5934  94.4481 14.31961164292637
SAUDISAT 1C (SO-50)     
1 27607U 02058C   26183.86686710  .00000945  00000+0  12865-3 0  9991
2 27607  64.5520  80.4726 0074878 259.5465  99.7197 14.83079029266787
CUTE-1 (CO-55)          
1 27844U 03031E   26183.84293221  .00000336  00000+0  16430-3 0  9991
2 27844  98.6736 192.2049 0010444 134.8646 225.3383 14.24345535193902
CUBESAT XI-IV (CO-57)   
1 27848U 03031J   26183.76896903  .00000279  00000+0  14166-3 0  9992
2 27848  98.6769 191.8320 0009989 152.4134 207.7577 14.23629228193596
MOZHAETS 4 (RS22)       
1 27939U 03042A   26184.64627509  .00001233  00000+0  19797-3 0  9993
2 27939  98.3468   9.4700 0010375 211.3207 213.2425 14.73497913217975
CUBESAT XI-V            
1 28895U 05043F   26183.69034546  .00001723  00000+0  27823-3 0  9998
2 28895  98.3002 339.6391 0014698 152.1460 208.0536 14.72675255104033
CUTE-1.7+APD II (CO-65) 
1 32785U 08021C   26184.22406084  .00005922  00000+0  37226-3 0  9993
2 32785  97.8286 165.9782 0008085 346.2326  13.8680 15.09607835987613
SEEDS II (CO-66)        
1 32791U 08021J   26183.80114905  .00020103  00000+0  62654-3 0  9992
2 32791  97.7521 182.4499 0001504 186.8338 173.2883 15.33292646989682
YUBILEINY (RS30)        
1 32953U 08025A   26184.67694286 -.00000075  00000+0 -61020-3 0  9991
2 32953  82.5048 345.1806 0018510 275.7656  84.1313 12.43179804821742
KKS-1 (KISEKI)          
1 33499U 09002H   26183.77363460  .00001569  00000+0  19908-3 0  9995
2 33499  98.1182 106.4628 0006563 234.2515 125.8088 14.83164432938501
SWISSCUBE               
1 35932U 09051B   26183.28877764  .00001164  00000+0  23926-3 0  9992
2 35932  98.4025  91.4397 0007062 154.9157 205.2388 14.62510844891362
